[{"OBJECT_NAME":"STARLINK-35848","OBJECT_ID":"2025-254B","EPOCH":"2026-03-28T13:19:20.059392","MEAN_MOTION":15.30212574,"ECCENTRICITY":0.0001419,"INCLINATION":53.1604,"RA_OF_ASC_NODE":144.856,"ARG_OF_PERICENTER":84.7619,"MEAN_ANOMALY":275.3544,"EPHEMERIS_TYPE":0,"CLASSIFICATION_TYPE":"U","NORAD_CAT_ID":66349,"ELEMENT_SET_NO":999,"REV_AT_EPOCH":2186,"BSTAR":0.0008443,"MEAN_MOTION_DOT":0.0002474,"MEAN_MOTION_DDOT":0},{"OBJECT_NAME":"STARLINK-35829","OBJECT_ID":"2025-254C","EPOCH":"2026-03-28T20:54:24.061248","MEAN_MOTION":15.30216462,"ECCENTRICITY":0.0001334,"INCLINATION":53.159,"RA_OF_ASC_NODE":143.27,"ARG_OF_PERICENTER":94.1037,"MEAN_ANOMALY":266.0116,"EPHEMERIS_TYPE":0,"CLASSIFICATION_TYPE":"U","NORAD_CAT_ID":66350,"ELEMENT_SET_NO":999,"REV_AT_EPOCH":2191,"BSTAR":0.00060913,"MEAN_MOTION_DOT":0.00017734,"MEAN_MOTION_DDOT":0},{"OBJECT_NAME":"STARLINK-35828","OBJECT_ID":"2025-254D","EPOCH":"2026-03-28T20:45:17.189856","MEAN_MOTION":15.30204367,"ECCENTRICITY":0.0001488,"INCLINATION":53.1592,"RA_OF_ASC_NODE":143.2306,"ARG_OF_PERICENTER":82.6894,"MEAN_ANOMALY":277.4276,"EPHEMERIS_TYPE":0,"CLASSIFICATION_TYPE":"U","NORAD_CAT_ID":66351,"ELEMENT_SET_NO":999,"REV_AT_EPOCH":2191,"BSTAR":0.00057968,"MEAN_MOTION_DOT":0.00016851,"MEAN_MOTION_DDOT":0},{"OBJECT_NAME":"STARLINK-35850","OBJECT_ID":"2025-254E","EPOCH":"2026-03-28T20:27:03.020256","MEAN_MOTION":15.30208787,"ECCENTRICITY":0.0001088,"INCLINATION":53.1556,"RA_OF_ASC_NODE":143.1523,"ARG_OF_PERICENTER":72.3903,"MEAN_ANOMALY":287.7217,"EPHEMERIS_TYPE":0,"CLASSIFICATION_TYPE":"U","NORAD_CAT_ID":66352,"ELEMENT_SET_NO":999,"REV_AT_EPOCH":2191,"BSTAR":0.00074736,"MEAN_MOTION_DOT":0.00021846,"MEAN_MOTION_DDOT":0},{"OBJECT_NAME":"STARLINK-35869","OBJECT_ID":"2025-254F","EPOCH":"2026-03-28T20:17:55.830912","MEAN_MOTION":15.30206203,"ECCENTRICITY":0.0001293,"INCLINATION":53.1575,"RA_OF_ASC_NODE":143.1102,"ARG_OF_PERICENTER":68.8522,"MEAN_ANOMALY":291.2617,"EPHEMERIS_TYPE":0,"CLASSIFICATION_TYPE":"U","NORAD_CAT_ID":66353,"ELEMENT_SET_NO":999,"REV_AT_EPOCH":2191,"BSTAR":0.00060951,"MEAN_MOTION_DOT":0.00017739,"MEAN_MOTION_DDOT":0},{"OBJECT_NAME":"STARLINK-35895","OBJECT_ID":"2025-254G","EPOCH":"2026-03-28T13:54:17.013312","MEAN_MOTION":15.30213832,"ECCENTRICITY":0.0001126,"INCLINATION":53.1589,"RA_OF_ASC_NODE":145.017,"ARG_OF_PERICENTER":81.3263,"MEAN_ANOMALY":278.7865,"EPHEMERIS_TYPE":0,"CLASSIFICATION_TYPE":"U","NORAD_CAT_ID":66354,"ELEMENT_SET_NO":999,"REV_AT_EPOCH":2186,"BSTAR":0.00067663,"MEAN_MOTION_DOT":0.00019743,"MEAN_MOTION_DDOT":0},{"OBJECT_NAME":"STARLINK-35861","OBJECT_ID":"2025-254H","EPOCH":"2026-03-28T13:45:09.912960","MEAN_MOTION":15.30199446,"ECCENTRICITY":0.0001104,"INCLINATION":53.1586,"RA_OF_ASC_NODE":144.9682,"ARG_OF_PERICENTER":74.6005,"MEAN_ANOMALY":285.5117,"EPHEMERIS_TYPE":0,"CLASSIFICATION_TYPE":"U","NORAD_CAT_ID":66355,"ELEMENT_SET_NO":999,"REV_AT_EPOCH":2186,"BSTAR":0.00094906,"MEAN_MOTION_DOT":0.00027854,"MEAN_MOTION_DDOT":0},{"OBJECT_NAME":"STARLINK-35851","OBJECT_ID":"2025-254J","EPOCH":"2026-03-28T10:32:29.937696","MEAN_MOTION":15.30197366,"ECCENTRICITY":0.00012255,"INCLINATION":53.1589,"RA_OF_ASC_NODE":145.5547,"ARG_OF_PERICENTER":82.5751,"MEAN_ANOMALY":277.5389,"EPHEMERIS_TYPE":0,"CLASSIFICATION_TYPE":"U","NORAD_CAT_ID":66356,"ELEMENT_SET_NO":999,"REV_AT_EPOCH":2184,"BSTAR":0.00048801426,"MEAN_MOTION_DOT":0.00014121,"MEAN_MOTION_DDOT":0},{"OBJECT_NAME":"STARLINK-35817","OBJECT_ID":"2025-254K","EPOCH":"2026-03-28T13:26:55.286304","MEAN_MOTION":15.30179502,"ECCENTRICITY":0.0001278,"INCLINATION":53.1596,"RA_OF_ASC_NODE":144.8884,"ARG_OF_PERICENTER":79.8011,"MEAN_ANOMALY":280.3134,"EPHEMERIS_TYPE":0,"CLASSIFICATION_TYPE":"U","NORAD_CAT_ID":66357,"ELEMENT_SET_NO":999,"REV_AT_EPOCH":2186,"BSTAR":0.0009039,"MEAN_MOTION_DOT":0.0002649,"MEAN_MOTION_DDOT":0},{"OBJECT_NAME":"STARLINK-35807","OBJECT_ID":"2025-254L","EPOCH":"2026-03-28T13:22:22.281312","MEAN_MOTION":15.3020659,"ECCENTRICITY":9.32e-5,"INCLINATION":53.1607,"RA_OF_ASC_NODE":144.8653,"ARG_OF_PERICENTER":72.7755,"MEAN_ANOMALY":287.3348,"EPHEMERIS_TYPE":0,"CLASSIFICATION_TYPE":"U","NORAD_CAT_ID":66358,"ELEMENT_SET_NO":999,"REV_AT_EPOCH":2186,"BSTAR":0.00086351,"MEAN_MOTION_DOT":0.00025308,"MEAN_MOTION_DDOT":0},{"OBJECT_NAME":"STARLINK-35805","OBJECT_ID":"2025-254M","EPOCH":"2026-03-28T20:43:46.064640","MEAN_MOTION":15.30207596,"ECCENTRICITY":0.0001529,"INCLINATION":53.1596,"RA_OF_ASC_NODE":143.224,"ARG_OF_PERICENTER":84.6585,"MEAN_ANOMALY":275.459,"EPHEMERIS_TYPE":0,"CLASSIFICATION_TYPE":"U","NORAD_CAT_ID":66359,"ELEMENT_SET_NO":999,"REV_AT_EPOCH":2304,"BSTAR":0.00077766,"MEAN_MOTION_DOT":0.00022749,"MEAN_MOTION_DDOT":0},{"OBJECT_NAME":"STARLINK-35823","OBJECT_ID":"2025-254N","EPOCH":"2026-03-28T20:25:31.822464","MEAN_MOTION":15.30206003,"ECCENTRICITY":0.0001321,"INCLINATION":53.1563,"RA_OF_ASC_NODE":143.1436,"ARG_OF_PERICENTER":85.7224,"MEAN_ANOMALY":274.3928,"EPHEMERIS_TYPE":0,"CLASSIFICATION_TYPE":"U","NORAD_CAT_ID":66360,"ELEMENT_SET_NO":999,"REV_AT_EPOCH":2191,"BSTAR":0.00062906,"MEAN_MOTION_DOT":0.00018321,"MEAN_MOTION_DDOT":0},{"OBJECT_NAME":"STARLINK-35813","OBJECT_ID":"2025-254P","EPOCH":"2026-03-28T14:18:25.658784","MEAN_MOTION":15.30219049,"ECCENTRICITY":3.81e-5,"INCLINATION":53.1587,"RA_OF_ASC_NODE":144.3989,"ARG_OF_PERICENTER":101.7512,"MEAN_ANOMALY":258.3531,"EPHEMERIS_TYPE":0,"CLASSIFICATION_TYPE":"U","NORAD_CAT_ID":66361,"ELEMENT_SET_NO":999,"REV_AT_EPOCH":2187,"BSTAR":0.0010558,"MEAN_MOTION_DOT":0.00031061,"MEAN_MOTION_DDOT":0},{"OBJECT_NAME":"STARLINK-35822","OBJECT_ID":"2025-254Q","EPOCH":"2026-03-28T13:48:12.337056","MEAN_MOTION":15.30192603,"ECCENTRICITY":0.000127,"INCLINATION":53.1587,"RA_OF_ASC_NODE":144.9797,"ARG_OF_PERICENTER":76.9291,"MEAN_ANOMALY":283.1851,"EPHEMERIS_TYPE":0,"CLASSIFICATION_TYPE":"U","NORAD_CAT_ID":66362,"ELEMENT_SET_NO":999,"REV_AT_EPOCH":2186,"BSTAR":0.00081718,"MEAN_MOTION_DOT":0.00023916,"MEAN_MOTION_DDOT":0},{"OBJECT_NAME":"STARLINK-35806","OBJECT_ID":"2025-254R","EPOCH":"2026-03-28T20:15:03.238272","MEAN_MOTION":15.30211476,"ECCENTRICITY":0.0001158,"INCLINATION":53.1573,"RA_OF_ASC_NODE":143.8098,"ARG_OF_PERICENTER":77.4485,"MEAN_ANOMALY":282.6645,"EPHEMERIS_TYPE":0,"CLASSIFICATION_TYPE":"U","NORAD_CAT_ID":66363,"ELEMENT_SET_NO":999,"REV_AT_EPOCH":2190,"BSTAR":0.00069833,"MEAN_MOTION_DOT":0.00020388,"MEAN_MOTION_DDOT":0},{"OBJECT_NAME":"STARLINK-35797","OBJECT_ID":"2025-254S","EPOCH":"2026-03-28T13:43:39.003744","MEAN_MOTION":15.30204695,"ECCENTRICITY":0.000172,"INCLINATION":53.1591,"RA_OF_ASC_NODE":144.9631,"ARG_OF_PERICENTER":98.7301,"MEAN_ANOMALY":261.3895,"EPHEMERIS_TYPE":0,"CLASSIFICATION_TYPE":"U","NORAD_CAT_ID":66364,"ELEMENT_SET_NO":999,"REV_AT_EPOCH":2186,"BSTAR":6.7316e-5,"MEAN_MOTION_DOT":1.635e-5,"MEAN_MOTION_DDOT":0},{"OBJECT_NAME":"STARLINK-35827","OBJECT_ID":"2025-254T","EPOCH":"2026-03-28T13:08:41.135712","MEAN_MOTION":15.3022832,"ECCENTRICITY":0.0001284,"INCLINATION":53.1596,"RA_OF_ASC_NODE":144.8053,"ARG_OF_PERICENTER":82.2994,"MEAN_ANOMALY":277.8153,"EPHEMERIS_TYPE":0,"CLASSIFICATION_TYPE":"U","NORAD_CAT_ID":66365,"ELEMENT_SET_NO":999,"REV_AT_EPOCH":2186,"BSTAR":0.0007888,"MEAN_MOTION_DOT":0.00023096,"MEAN_MOTION_DDOT":0},{"OBJECT_NAME":"STARLINK-35845","OBJECT_ID":"2025-254U","EPOCH":"2026-03-28T13:20:51.106848","MEAN_MOTION":15.30213003,"ECCENTRICITY":0.0001126,"INCLINATION":53.1598,"RA_OF_ASC_NODE":144.8591,"ARG_OF_PERICENTER":74.8005,"MEAN_ANOMALY":285.3121,"EPHEMERIS_TYPE":0,"CLASSIFICATION_TYPE":"U","NORAD_CAT_ID":66366,"ELEMENT_SET_NO":999,"REV_AT_EPOCH":2186,"BSTAR":0.00081297,"MEAN_MOTION_DOT":0.00023805,"MEAN_MOTION_DDOT":0},{"OBJECT_NAME":"STARLINK-35846","OBJECT_ID":"2025-254V","EPOCH":"2026-03-28T20:19:26.988960","MEAN_MOTION":15.3020834,"ECCENTRICITY":0.0001061,"INCLINATION":53.1575,"RA_OF_ASC_NODE":143.1182,"ARG_OF_PERICENTER":87.7401,"MEAN_ANOMALY":272.3721,"EPHEMERIS_TYPE":0,"CLASSIFICATION_TYPE":"U","NORAD_CAT_ID":66367,"ELEMENT_SET_NO":999,"REV_AT_EPOCH":2191,"BSTAR":0.00083138,"MEAN_MOTION_DOT":0.00024351,"MEAN_MOTION_DDOT":0},{"OBJECT_NAME":"STARLINK-34861","OBJECT_ID":"2025-254W","EPOCH":"2026-03-28T20:49:04.553184","MEAN_MOTION":15.30203658,"ECCENTRICITY":0.0002137,"INCLINATION":53.1605,"RA_OF_ASC_NODE":141.073,"ARG_OF_PERICENTER":89.4641,"MEAN_ANOMALY":270.6604,"EPHEMERIS_TYPE":0,"CLASSIFICATION_TYPE":"U","NORAD_CAT_ID":66368,"ELEMENT_SET_NO":999,"REV_AT_EPOCH":2194,"BSTAR":0.00080782,"MEAN_MOTION_DOT":0.00023645,"MEAN_MOTION_DDOT":0},{"OBJECT_NAME":"STARLINK-35795","OBJECT_ID":"2025-254X","EPOCH":"2026-03-28T13:07:55.336800","MEAN_MOTION":15.30210118,"ECCENTRICITY":0.000142,"INCLINATION":53.16,"RA_OF_ASC_NODE":142.6307,"ARG_OF_PERICENTER":73.5222,"MEAN_ANOMALY":286.5935,"EPHEMERIS_TYPE":0,"CLASSIFICATION_TYPE":"U","NORAD_CAT_ID":66369,"ELEMENT_SET_NO":999,"REV_AT_EPOCH":2189,"BSTAR":0.00078087,"MEAN_MOTION_DOT":0.00022846,"MEAN_MOTION_DDOT":0},{"OBJECT_NAME":"STARLINK-35824","OBJECT_ID":"2025-254Y","EPOCH":"2026-03-28T20:53:37.825152","MEAN_MOTION":15.30213237,"ECCENTRICITY":0.0001288,"INCLINATION":53.1604,"RA_OF_ASC_NODE":141.0942,"ARG_OF_PERICENTER":80.9619,"MEAN_ANOMALY":279.1528,"EPHEMERIS_TYPE":0,"CLASSIFICATION_TYPE":"U","NORAD_CAT_ID":66370,"ELEMENT_SET_NO":999,"REV_AT_EPOCH":2194,"BSTAR":0.00063069,"MEAN_MOTION_DOT":0.00018374,"MEAN_MOTION_DDOT":0},{"OBJECT_NAME":"STARLINK-35804","OBJECT_ID":"2025-254Z","EPOCH":"2026-03-28T20:44:30.753312","MEAN_MOTION":15.30214776,"ECCENTRICITY":0.0001359,"INCLINATION":53.1593,"RA_OF_ASC_NODE":141.0518,"ARG_OF_PERICENTER":87.4915,"MEAN_ANOMALY":272.6241,"EPHEMERIS_TYPE":0,"CLASSIFICATION_TYPE":"U","NORAD_CAT_ID":66371,"ELEMENT_SET_NO":999,"REV_AT_EPOCH":2194,"BSTAR":0.00075017,"MEAN_MOTION_DOT":0.00021934,"MEAN_MOTION_DDOT":0}]
